#aV2006  1 17  0  0   .00000000      96 DD+AD WGS84 FIT  NGA
## 1358 172800.00000000   900.00000000 53752  .0000000000000
+   29     1  2  3  4  5  6  7  8  9 10 11 13 14 15 16 17 18
+         19 20 21 22 23 24 25 26 27 28 29 30  0  0  0  0  0
+          0  0  0  0  0  0  0  0  0  0  0  0  0  0  0  0  0
+          0  0  0  0  0  0  0  0  0  0  0  0  0  0  0  0  0
+          0  0  0  0  0  0  0  0  0  0  0  0  0  0  0  0  0
++         0  0  0  0  0  0  0  0  0  0  0  0  0  0  0  0  0
++         0  0  0  0  0  0  0  0  0  0  0  0  0  0  0  0  0
++         0  0  0  0  0  0  0  0  0  0  0  0  0  0  0  0  0
++         0  0  0  0  0  0  0  0  0  0  0  0  0  0  0  0  0
++         0  0  0  0  0  0  0  0  0  0  0  0  0  0  0  0  0
%c cc cc ccc ccc cccc cccc cccc cccc ccccc ccccc ccccc ccccc
%c cc cc ccc ccc cccc cccc cccc cccc ccccc ccccc ccccc ccccc
%f  0.0000000  0.000000000  0.00000000000  0.000000000000000
%f  0.0000000  0.000000000  0.00000000000  0.000000000000000
%i    0    0    0    0      0      0      0      0         0
%i    0    0    0    0      0      0      0      0         0
/*      NGA, ST. LOUIS,MO.                                  
/*   EPHEMERIS COMPUTED FROM  3 DAYS OF DATA                
/* CCCCCCCCCCCCCCCCCCCCCCCCCCCCCCCCCCCCCCCCCCCCCCCCCCCCCCCCC
/* CCCCCCCCCCCCCCCCCCCCCCCCCCCCCCCCCCCCCCCCCCCCCCCCCCCCCCCCC
*  2006  1 17  1  0   .00000000                                                 
P  1 -14747.030935     42.290536 -21893.123818     31.681252                    
V  1  -5151.142728 -27732.877151   3343.384501       .026168                    
P  2  22076.263272  -9719.026436 -11199.717728    -21.777398                    
V  2  -8290.972324  11468.740995 -27121.024624       .011721                    
P  3 -14436.344175   6802.959149  21055.360615     67.199503                    
V  3  -8896.589306 -25780.604143   2511.815678       .030741                    
P  4  19238.159738    431.064481 -18486.642849    120.512105                    
V  4 -16389.756849  16641.649612 -16343.848246       .118992                    
P  5   4616.505555 -15147.502255 -21511.125336    476.128069                    
V  5  26281.279888   6006.843433   1589.133358       .163997                    
P  6  -6774.593497 -25634.157472      -.345446    230.219587                    
V  6   3688.545439   -745.030613 -31189.387812       .410357                    
P  7  16487.579857  11266.964396 -17144.748897    473.220650                    
V  7   4277.825419  22340.962333  18216.912692       .093538                    
P  8  13396.839692   7803.962491  21463.618447    -53.739332                    
V  8 -20657.443786  18187.829425   5848.424274      -.012108                    
P  9  13313.294213 -21496.617850  -8143.101387      3.857524                    
V  9   8832.768656  -4909.004168  29608.299088       .015704                    
P 10  21226.668395  -4128.821428  15551.069196     77.223569                    
V 10  18289.215941   7553.655728 -22542.287925       .005721                    
P 11 -11179.426054  22871.249905  -7189.307835    299.736184                    
V 11  -9414.485200   4234.816105  28580.538301       .030049                    
P 13   6535.143616  25712.186626   1746.182398     35.494162                    
V 13  -1315.213634   2620.458737 -32258.430727       .023218                    
P 14 -14571.644947 -14639.700026 -16652.462186    -20.901832                    
V 14  -3275.369489 -20998.063566  21190.412624       .005419                    
P 15 -12561.062712  -9183.330439  21391.616717    551.058190                    
V 15  21306.609660 -17437.368409   4622.263641       .059248                    
P 16 -24872.217399   -865.433599   9478.921890     22.172793                    
V 16 -10628.853817  -5861.742569 -28581.099101       .016413                    
P 17  14710.502664  16077.801214 -15261.550541     29.212203                    
V 17   2447.877199  19253.507535  22601.668140       .094125                    
P 18 -13134.729959 -16698.384205  16213.246116   -215.271075                    
V 18  19707.244761   5163.072242  21121.986883      -.022760                    
P 19  -8167.114001  19539.107901  16110.636017    -23.555216                    
V 19  -5327.049412 -19679.765819  21329.766169       .007146                    
P 20  -4079.526600  14733.781704 -21799.593103    -35.076967                    
V 20 -26370.032515  -7777.620141   -294.870007       .010158                    
P 21  -4282.946799 -16030.325428  20678.906011     -3.282726                    
V 21  20706.763236 -16313.387877  -8875.254096       .036800                    
P 22 -22865.729829 -12418.221126   5483.586876     62.279432                    
V 22   7321.283688   -344.735692  30650.335496       .026797                    
P 23  -1274.214985  24568.358926  -9898.142666    154.262750                    
V 23  -5216.229101 -11600.989559 -28521.143961      -.016148                    
P 24   8055.895958  12859.231481 -21544.131954     77.987221                    
V 24 -21606.927036  17728.955798   2708.641341       .029466                    
P 25 -19979.182443   4757.806829 -16497.057992   -216.440951                    
V 25  12929.547244 -17537.111788 -20129.243246      -.842486                    
P 26   9748.309933 -14931.726320  19106.872590    -17.340042                    
V 26   6435.402768  24383.779343  16049.353946      -.077691                    
P 27   5225.738609  16021.775864  21037.735219     31.823435                    
V 27 -18249.350795  17808.933002  -9660.264706       .016280                    
P 28  21531.487009  13397.224492   8733.850645     35.029089                    
V 28 -10811.871627  -1110.966239  28899.135533      -.007308                    
P 29  11855.875991 -10964.732159  21286.911831    501.225350                    
V 29   6906.927453  25525.428328   9647.445147       .138536                    
P 30  -6408.326102 -16670.563652 -19967.300350     16.288300                    
V 30  24247.208123   5251.823059 -12223.671501       .045385                    
EOF
